[{"OBJECT_NAME":"ASTROCAST-0404","OBJECT_ID":"2023-001DH","EPOCH":"2026-03-09T19:24:02.920896","MEAN_MOTION":15.26309833,"ECCENTRICITY":0.00068478,"INCLINATION":97.5646,"RA_OF_ASC_NODE":161.5422,"ARG_OF_PERICENTER":1.1317,"MEAN_ANOMALY":358.9936,"EPHEMERIS_TYPE":0,"CLASSIFICATION_TYPE":"U","NORAD_CAT_ID":55112,"ELEMENT_SET_NO":999,"REV_AT_EPOCH":12936,"BSTAR":0.00034435555,"MEAN_MOTION_DOT":8.87e-5,"MEAN_MOTION_DDOT":0},{"OBJECT_NAME":"STARLINK-33928","OBJECT_ID":"2025-101K","EPOCH":"2026-03-09T03:03:54.342720","MEAN_MOTION":15.27605382,"ECCENTRICITY":0.00010088,"INCLINATION":43.001,"RA_OF_ASC_NODE":0.7654,"ARG_OF_PERICENTER":269.0947,"MEAN_ANOMALY":90.9789,"EPHEMERIS_TYPE":0,"CLASSIFICATION_TYPE":"U","NORAD_CAT_ID":64003,"ELEMENT_SET_NO":999,"REV_AT_EPOCH":4697,"BSTAR":0.00073480393,"MEAN_MOTION_DOT":0.00020029,"MEAN_MOTION_DDOT":0}]
